[{"OBJECT_NAME":"STARLINK-33721","OBJECT_ID":"2025-070W","EPOCH":"2026-03-09T22:02:53.748096","MEAN_MOTION":15.27605372,"ECCENTRICITY":0.00052195,"INCLINATION":43.0036,"RA_OF_ASC_NODE":254.8336,"ARG_OF_PERICENTER":271.6402,"MEAN_ANOMALY":88.3852,"EPHEMERIS_TYPE":0,"CLASSIFICATION_TYPE":"U","NORAD_CAT_ID":63480,"ELEMENT_SET_NO":999,"REV_AT_EPOCH":5305,"BSTAR":0.0014101908,"MEAN_MOTION_DOT":0.00038789,"MEAN_MOTION_DDOT":0},{"OBJECT_NAME":"OBJECT BC","OBJECT_ID":"2025-313BC","EPOCH":"2026-03-09T04:33:08.504064","MEAN_MOTION":15.29126358,"ECCENTRICITY":0.00084789,"INCLINATION":97.3985,"RA_OF_ASC_NODE":144.811,"ARG_OF_PERICENTER":328.9209,"MEAN_ANOMALY":31.1528,"EPHEMERIS_TYPE":0,"CLASSIFICATION_TYPE":"U","NORAD_CAT_ID":67298,"ELEMENT_SET_NO":999,"REV_AT_EPOCH":789,"BSTAR":0.0026410397,"MEAN_MOTION_DOT":0.00075331,"MEAN_MOTION_DDOT":0}]
